{
    "links": {
        "self": "http://www.neowsapp.com/rest/v1/neo/3789663?api_key=iIulBulltgU6a56xZRHN4H3l9WmuAYTsLGpBGhQ2"
    },
    "id": "3789663",
    "neo_reference_id": "3789663",
    "name": "(2017 WL14)",
    "designation": "2017 WL14",
    "nasa_jpl_url": "http://ssd.jpl.nasa.gov/sbdb.cgi?sstr=3789663",
    "absolute_magnitude_h": 25.2,
    "estimated_diameter": {
        "kilometers": {
            "estimated_diameter_min": 0.0242412481,
            "estimated_diameter_max": 0.0542050786
        },
        "meters": {
            "estimated_diameter_min": 24.2412481101,
            "estimated_diameter_max": 54.2050786336
        },
        "miles": {
            "estimated_diameter_min": 0.0150628086,
            "estimated_diameter_max": 0.0336814639
        },
        "feet": {
            "estimated_diameter_min": 79.5316564495,
            "estimated_diameter_max": 177.8381901842
        }
    },
    "is_potentially_hazardous_asteroid": false,
    "close_approach_data": [
        {
            "close_approach_date": "1929-11-21",
            "close_approach_date_full": "1929-Nov-21 22:42",
            "epoch_date_close_approach": -1265764680000,
            "relative_velocity": {
                "kilometers_per_second": "11.5143643851",
                "kilometers_per_hour": "41451.7117862369",
                "miles_per_hour": "25756.4816929537"
            },
            "miss_distance": {
                "astronomical": "0.4157654258",
                "lunar": "161.7327506362",
                "kilometers": "62197622.119323046",
                "miles": "38647810.2621721948"
            },
            "orbiting_body": "Earth"
        },
        {
            "close_approach_date": "1932-12-02",
            "close_approach_date_full": "1932-Dec-02 19:00",
            "epoch_date_close_approach": -1170133200000,
            "relative_velocity": {
                "kilometers_per_second": "5.6041511515",
                "kilometers_per_hour": "20174.9441453051",
                "miles_per_hour": "12535.9257107314"
            },
            "miss_distance": {
                "astronomical": "0.0855601753",
                "lunar": "33.2829081917",
                "kilometers": "12799619.981706611",
                "miles": "7953315.0565127918"
            },
            "orbiting_body": "Earth"
        },
        {
            "close_approach_date": "1951-11-28",
            "close_approach_date_full": "1951-Nov-28 03:06",
            "epoch_date_close_approach": -571006440000,
            "relative_velocity": {
                "kilometers_per_second": "9.8036035465",
                "kilometers_per_hour": "35292.972767299",
                "miles_per_hour": "21929.6807731031"
            },
            "miss_distance": {
                "astronomical": "0.3110231817",
                "lunar": "120.9880176813",
                "kilometers": "46528405.502942979",
                "miles": "28911410.5396079502"
            },
            "orbiting_body": "Earth"
        },
        {
            "close_approach_date": "2017-12-02",
            "close_approach_date_full": "2017-Dec-02 08:57",
            "epoch_date_close_approach": 1512205020000,
            "relative_velocity": {
                "kilometers_per_second": "5.8111536408",
                "kilometers_per_hour": "20920.153106755",
                "miles_per_hour": "12998.9695790278"
            },
            "miss_distance": {
                "astronomical": "0.0848779434",
                "lunar": "33.0175199826",
                "kilometers": "12697559.542620558",
                "miles": "7889897.6403693804"
            },
            "orbiting_body": "Earth"
        },
        {
            "close_approach_date": "2039-12-03",
            "close_approach_date_full": "2039-Dec-03 07:53",
            "epoch_date_close_approach": 2206511580000,
            "relative_velocity": {
                "kilometers_per_second": "5.7045007207",
                "kilometers_per_hour": "20536.2025945225",
                "miles_per_hour": "12760.3976621354"
            },
            "miss_distance": {
                "astronomical": "0.081194076",
                "lunar": "31.584495564",
                "kilometers": "12146460.82621812",
                "miles": "7547460.777005256"
            },
            "orbiting_body": "Earth"
        }
    ],
    "orbital_data": {
        "orbit_id": "8",
        "orbit_determination_date": "2017-12-20 06:22:28",
        "first_observation_date": "2017-11-23",
        "last_observation_date": "2017-12-19",
        "data_arc_in_days": 26,
        "observations_used": 51,
        "orbit_uncertainty": "7",
        "minimum_orbit_intersection": ".0821245",
        "jupiter_tisserand_invariant": "4.995",
        "epoch_osculation": "2459000.5",
        "eccentricity": ".175797691484824",
        "semi_major_axis": "1.291031363390125",
        "inclination": "10.28990565563432",
        "ascending_node_longitude": "75.25348334947849",
        "orbital_period": "535.8011188018451",
        "perihelion_distance": "1.064071030071636",
        "perihelion_argument": "346.0389044561614",
        "aphelion_distance": "1.517991696708614",
        "perihelion_time": "2459153.783111109916",
        "mean_anomaly": "257.0104427497886",
        "mean_motion": ".6718910942273313",
        "equinox": "J2000",
        "orbit_class": {
            "orbit_class_type": "AMO",
            "orbit_class_description": "Near-Earth asteroid orbits similar to that of 1221 Amor",
            "orbit_class_range": "1.017 AU < q (perihelion) < 1.3 AU"
        }
    },
    "is_sentry_object": false
}